[{"OBJECT_NAME":"GSAT-6","OBJECT_ID":"2015-041A","EPOCH":"2026-04-26T12:14:55.096224","MEAN_MOTION":1.00272813,"ECCENTRICITY":0.0003108,"INCLINATION":1.7862,"RA_OF_ASC_NODE":83.2076,"ARG_OF_PERICENTER":315.3974,"MEAN_ANOMALY":82.1888,"EPHEMERIS_TYPE":0,"CLASSIFICATION_TYPE":"U","NORAD_CAT_ID":40880,"ELEMENT_SET_NO":999,"REV_AT_EPOCH":3908,"BSTAR":0,"MEAN_MOTION_DOT":-1.71e-6,"MEAN_MOTION_DDOT":0},{"OBJECT_NAME":"INMARSAT 5-F3","OBJECT_ID":"2015-042A","EPOCH":"2026-04-26T09:45:38.434176","MEAN_MOTION":1.00269649,"ECCENTRICITY":0.0001102,"INCLINATION":0.0121,"RA_OF_ASC_NODE":221.8712,"ARG_OF_PERICENTER":163.8455,"MEAN_ANOMALY":154.6897,"EPHEMERIS_TYPE":0,"CLASSIFICATION_TYPE":"U","NORAD_CAT_ID":40882,"ELEMENT_SET_NO":999,"REV_AT_EPOCH":3905,"BSTAR":0,"MEAN_MOTION_DOT":0,"MEAN_MOTION_DDOT":0},{"OBJECT_NAME":"TJS-1","OBJECT_ID":"2015-046A","EPOCH":"2026-04-26T13:39:35.394624","MEAN_MOTION":1.00269547,"ECCENTRICITY":0.0005603,"INCLINATION":0.1909,"RA_OF_ASC_NODE":83.9609,"ARG_OF_PERICENTER":329.313,"MEAN_ANOMALY":161.1516,"EPHEMERIS_TYPE":0,"CLASSIFICATION_TYPE":"U","NORAD_CAT_ID":40892,"ELEMENT_SET_NO":999,"REV_AT_EPOCH":3905,"BSTAR":0,"MEAN_MOTION_DOT":-1.69e-6,"MEAN_MOTION_DDOT":0},{"OBJECT_NAME":"EXPRESS-AM8","OBJECT_ID":"2015-048A","EPOCH":"2026-04-24T18:43:12.064800","MEAN_MOTION":1.00271897,"ECCENTRICITY":5.394e-5,"INCLINATION":0.0192,"RA_OF_ASC_NODE":244.4769,"ARG_OF_PERICENTER":32.6172,"MEAN_ANOMALY":202.5049,"EPHEMERIS_TYPE":0,"CLASSIFICATION_TYPE":"U","NORAD_CAT_ID":40895,"ELEMENT_SET_NO":999,"REV_AT_EPOCH":3881,"BSTAR":0,"MEAN_MOTION_DOT":-1.26e-6,"MEAN_MOTION_DDOT":0},{"OBJECT_NAME":"COSMOS 1700 DEB","OBJECT_ID":"1985-102G","EPOCH":"2026-04-26T03:33:56.766816","MEAN_MOTION":1.00229916,"ECCENTRICITY":0.002495,"INCLINATION":9.7791,"RA_OF_ASC_NODE":319.1187,"ARG_OF_PERICENTER":123.2079,"MEAN_ANOMALY":241.5981,"EPHEMERIS_TYPE":0,"CLASSIFICATION_TYPE":"U","NORAD_CAT_ID":40924,"ELEMENT_SET_NO":999,"REV_AT_EPOCH":6691,"BSTAR":0,"MEAN_MOTION_DOT":4.0e-7,"MEAN_MOTION_DDOT":0},{"OBJECT_NAME":"SKY MUSTER 1 (NBN1A)","OBJECT_ID":"2015-054A","EPOCH":"2026-04-26T10:22:38.858880","MEAN_MOTION":1.0027158,"ECCENTRICITY":0.000175,"INCLINATION":0.0131,"RA_OF_ASC_NODE":264.4562,"ARG_OF_PERICENTER":126.5871,"MEAN_ANOMALY":119.3075,"EPHEMERIS_TYPE":0,"CLASSIFICATION_TYPE":"U","NORAD_CAT_ID":40940,"ELEMENT_SET_NO":999,"REV_AT_EPOCH":3874,"BSTAR":0,"MEAN_MOTION_DOT":-2.91e-6,"MEAN_MOTION_DDOT":0},{"OBJECT_NAME":"ARSAT 2","OBJECT_ID":"2015-054B","EPOCH":"2026-04-26T11:28:14.572416","MEAN_MOTION":1.00269663,"ECCENTRICITY":0.0002238,"INCLINATION":0.013,"RA_OF_ASC_NODE":76.2866,"ARG_OF_PERICENTER":311.2747,"MEAN_ANOMALY":277.9772,"EPHEMERIS_TYPE":0,"CLASSIFICATION_TYPE":"U","NORAD_CAT_ID":40941,"ELEMENT_SET_NO":999,"REV_AT_EPOCH":3878,"BSTAR":0,"MEAN_MOTION_DOT":0,"MEAN_MOTION_DDOT":0},{"OBJECT_NAME":"MORELOS 3","OBJECT_ID":"2015-056A","EPOCH":"2026-04-26T11:19:07.946400","MEAN_MOTION":1.00272228,"ECCENTRICITY":0.0003143,"INCLINATION":3.1477,"RA_OF_ASC_NODE":13.6426,"ARG_OF_PERICENTER":0.037,"MEAN_ANOMALY":257.4819,"EPHEMERIS_TYPE":0,"CLASSIFICATION_TYPE":"U","NORAD_CAT_ID":40946,"ELEMENT_SET_NO":999,"REV_AT_EPOCH":3876,"BSTAR":0,"MEAN_MOTION_DOT":-5.4e-7,"MEAN_MOTION_DDOT":0},{"OBJECT_NAME":"APSTAR-9","OBJECT_ID":"2015-059A","EPOCH":"2026-04-26T12:31:53.467968","MEAN_MOTION":1.00270592,"ECCENTRICITY":8.95e-5,"INCLINATION":0.0573,"RA_OF_ASC_NODE":61.4274,"ARG_OF_PERICENTER":155.61,"MEAN_ANOMALY":327.4643,"EPHEMERIS_TYPE":0,"CLASSIFICATION_TYPE":"U","NORAD_CAT_ID":40982,"ELEMENT_SET_NO":999,"REV_AT_EPOCH":3860,"BSTAR":0,"MEAN_MOTION_DOT":-2.78e-6,"MEAN_MOTION_DDOT":0},{"OBJECT_NAME":"TURKSAT 4B","OBJECT_ID":"2015-060A","EPOCH":"2026-04-26T12:05:40.981056","MEAN_MOTION":1.00269169,"ECCENTRICITY":0.0002294,"INCLINATION":0.0418,"RA_OF_ASC_NODE":73.2585,"ARG_OF_PERICENTER":306.8785,"MEAN_ANOMALY":65.7884,"EPHEMERIS_TYPE":0,"CLASSIFICATION_TYPE":"U","NORAD_CAT_ID":40984,"ELEMENT_SET_NO":999,"REV_AT_EPOCH":3857,"BSTAR":0,"MEAN_MOTION_DOT":1.03e-6,"MEAN_MOTION_DDOT":0},{"OBJECT_NAME":"ZHONGXING-2C","OBJECT_ID":"2015-063A","EPOCH":"2026-04-26T12:20:54.521952","MEAN_MOTION":1.00272585,"ECCENTRICITY":0.0006383,"INCLINATION":0.1411,"RA_OF_ASC_NODE":92.5695,"ARG_OF_PERICENTER":111.6103,"MEAN_ANOMALY":299.0102,"EPHEMERIS_TYPE":0,"CLASSIFICATION_TYPE":"U","NORAD_CAT_ID":41021,"ELEMENT_SET_NO":999,"REV_AT_EPOCH":3846,"BSTAR":0,"MEAN_MOTION_DOT":-3.36e-6,"MEAN_MOTION_DDOT":0},{"OBJECT_NAME":"GSAT-15","OBJECT_ID":"2015-065A","EPOCH":"2026-04-26T12:18:02.297376","MEAN_MOTION":1.00272058,"ECCENTRICITY":0.0003715,"INCLINATION":0.0693,"RA_OF_ASC_NODE":257.2086,"ARG_OF_PERICENTER":144.1307,"MEAN_ANOMALY":91.1948,"EPHEMERIS_TYPE":0,"CLASSIFICATION_TYPE":"U","NORAD_CAT_ID":41028,"ELEMENT_SET_NO":999,"REV_AT_EPOCH":3828,"BSTAR":0,"MEAN_MOTION_DOT":-2.7e-6,"MEAN_MOTION_DDOT":0},{"OBJECT_NAME":"BADR-7 (ARABSAT-6B)","OBJECT_ID":"2015-065B","EPOCH":"2026-04-26T11:58:41.653344","MEAN_MOTION":1.00270663,"ECCENTRICITY":0.000237,"INCLINATION":0.0323,"RA_OF_ASC_NODE":236.6419,"ARG_OF_PERICENTER":357.9555,"MEAN_ANOMALY":185.5616,"EPHEMERIS_TYPE":0,"CLASSIFICATION_TYPE":"U","NORAD_CAT_ID":41029,"ELEMENT_SET_NO":999,"REV_AT_EPOCH":3824,"BSTAR":0,"MEAN_MOTION_DOT":1.32e-6,"MEAN_MOTION_DDOT":0},{"OBJECT_NAME":"LAOSAT 1","OBJECT_ID":"2015-067A","EPOCH":"2026-04-26T12:51:54.376128","MEAN_MOTION":1.00271488,"ECCENTRICITY":0.0002343,"INCLINATION":0.0152,"RA_OF_ASC_NODE":236.9546,"ARG_OF_PERICENTER":123.3469,"MEAN_ANOMALY":175.7066,"EPHEMERIS_TYPE":0,"CLASSIFICATION_TYPE":"U","NORAD_CAT_ID":41034,"ELEMENT_SET_NO":999,"REV_AT_EPOCH":3834,"BSTAR":0,"MEAN_MOTION_DOT":0,"MEAN_MOTION_DDOT":0},{"OBJECT_NAME":"TELSTAR 12V","OBJECT_ID":"2015-068A","EPOCH":"2026-04-26T10:04:21.939168","MEAN_MOTION":1.00271657,"ECCENTRICITY":0.0002461,"INCLINATION":0.0075,"RA_OF_ASC_NODE":210.6197,"ARG_OF_PERICENTER":180.0808,"MEAN_ANOMALY":319.8146,"EPHEMERIS_TYPE":0,"CLASSIFICATION_TYPE":"U","NORAD_CAT_ID":41036,"ELEMENT_SET_NO":999,"REV_AT_EPOCH":3810,"BSTAR":0,"MEAN_MOTION_DOT":-1.31e-6,"MEAN_MOTION_DDOT":0},{"OBJECT_NAME":"ELEKTRO-L 2","OBJECT_ID":"2015-074A","EPOCH":"2026-04-26T04:56:26.354976","MEAN_MOTION":1.00270527,"ECCENTRICITY":0.0002269,"INCLINATION":6.5659,"RA_OF_ASC_NODE":71.1488,"ARG_OF_PERICENTER":255.6194,"MEAN_ANOMALY":307.043,"EPHEMERIS_TYPE":0,"CLASSIFICATION_TYPE":"U","NORAD_CAT_ID":41105,"ELEMENT_SET_NO":999,"REV_AT_EPOCH":3798,"BSTAR":0,"MEAN_MOTION_DOT":-1.26e-6,"MEAN_MOTION_DDOT":0},{"OBJECT_NAME":"COSMOS 2513","OBJECT_ID":"2015-075A","EPOCH":"2026-04-26T12:14:17.655648","MEAN_MOTION":1.00271433,"ECCENTRICITY":0.0002961,"INCLINATION":0.0618,"RA_OF_ASC_NODE":90.9998,"ARG_OF_PERICENTER":307.0902,"MEAN_ANOMALY":80.2398,"EPHEMERIS_TYPE":0,"CLASSIFICATION_TYPE":"U","NORAD_CAT_ID":41121,"ELEMENT_SET_NO":999,"REV_AT_EPOCH":3803,"BSTAR":0,"MEAN_MOTION_DOT":-1.5e-6,"MEAN_MOTION_DDOT":0}]
