GSAT-6                  
1 40880U 15041A   26116.51035991 -.00000171  00000+0  00000+0 0  9998
2 40880   1.7862  83.2076 0003108 315.3974  82.1888  1.00272813 39085
INMARSAT 5-F3           
1 40882U 15042A   26116.40669484  .00000000  00000+0  00000+0 0  9999
2 40882   0.0121 221.8712 0001102 163.8455 154.6897  1.00269649 39051
TJS-1                   
1 40892U 15046A   26116.56915966 -.00000169  00000+0  00000+0 0  9997
2 40892   0.1909  83.9609 0005603 329.3130 161.1516  1.00269547 39056
EXPRESS-AM8             
1 40895U 15048A   26114.78000075 -.00000126  00000+0  00000+0 0  9993
2 40895   0.0192 244.4769 0000539  32.6172 202.5049  1.00271897 38811
COSMOS 1700 DEB         
1 40924U 85102G   26116.14857369  .00000040  00000+0  00000+0 0  9996
2 40924   9.7791 319.1187 0024950 123.2079 241.5981  1.00229916 66910
SKY MUSTER 1 (NBN1A)    
1 40940U 15054A   26116.43239420 -.00000291  00000+0  00000+0 0  9996
2 40940   0.0131 264.4562 0001750 126.5871 119.3075  1.00271580 38748
ARSAT 2                 
1 40941U 15054B   26116.47794644  .00000000  00000+0  00000+0 0  9992
2 40941   0.0130  76.2866 0002238 311.2747 277.9772  1.00269663 38789
MORELOS 3               
1 40946U 15056A   26116.47161975 -.00000054  00000+0  00000+0 0  9994
2 40946   3.1477  13.6426 0003143   0.0370 257.4819  1.00272228 38764
APSTAR-9                
1 40982U 15059A   26116.52214662 -.00000278  00000+0  00000+0 0  9993
2 40982   0.0573  61.4274 0000895 155.6100 327.4643  1.00270592 38606
TURKSAT 4B              
1 40984U 15060A   26116.50394654  .00000103  00000+0  00000+0 0  9991
2 40984   0.0418  73.2585 0002294 306.8785  65.7884  1.00269169 38579
ZHONGXING-2C            
1 41021U 15063A   26116.51451993 -.00000336  00000+0  00000+0 0  9997
2 41021   0.1411  92.5695 0006383 111.6103 299.0102  1.00272585 38460
GSAT-15                 
1 41028U 15065A   26116.51252659 -.00000270  00000+0  00000+0 0  9991
2 41028   0.0693 257.2086 0003715 144.1307  91.1948  1.00272058 38289
BADR-7 (ARABSAT-6B)     
1 41029U 15065B   26116.49909321  .00000132  00000+0  00000+0 0  9990
2 41029   0.0323 236.6419 0002370 357.9555 185.5616  1.00270663 38242
LAOSAT 1                
1 41034U 15067A   26116.53604602  .00000000  00000+0  00000+0 0  9991
2 41034   0.0152 236.9546 0002343 123.3469 175.7066  1.00271488 38348
TELSTAR 12V             
1 41036U 15068A   26116.41969837 -.00000131  00000+0  00000+0 0  9991
2 41036   0.0075 210.6197 0002461 180.0808 319.8146  1.00271657 38105
ELEKTRO-L 2             
1 41105U 15074A   26116.20586059 -.00000126  00000+0  00000+0 0  9997
2 41105   6.5659  71.1488 0002269 255.6194 307.0430  1.00270527 37982
COSMOS 2513             
1 41121U 15075A   26116.50992657 -.00000150  00000+0  00000+0 0  9991
2 41121   0.0618  90.9998 0002961 307.0902  80.2398  1.00271433 38034
